0 FENGYUN 1C DEB
1 30910U 99025AYY 13283.29422243  .00014117  00000-0  29745-2 0  3439
2 30910 098.6769 297.8566 0163470 336.8277 022.5726 14.51496432345937
0 FENGYUN 1C DEB
1 30910U 99025AYY 13283.84568342  .00014166  00000-0  29927-2 0  3448
2 30910 098.6793 298.4305 0162022 335.4414 023.9347 14.51513056346018
0 FENGYUN 1C DEB
1 30910U 99025AYY 13288.25715515  .00015114  00000-0  31732-2 0  3467
2 30910 098.6806 302.9901 0163209 321.4317 037.9187 14.51661809346658
0 FENGYUN 1C DEB
1 30910U 99025AYY 13289.22202994  .00015334  00000-0  31923-2 0  3474
2 30910 098.6682 303.9660 0166726 319.0748 039.8144 14.51695193346793
0 FENGYUN 1C DEB
1 30910U 99025AYY 13289.29095170  .00015513  00000-0  32192-2 0  3486
2 30910 098.6744 304.0523 0168134 318.6456 040.2757 14.51701095346805
0 FENGYUN 1C DEB
1 30910U 99025AYY 13289.84232620  .00015736  00000-0  33897-2 0  3491
2 30910 098.6985 304.6708 0149838 316.9807 042.1110 14.51722187346881
0 FENGYUN 1C DEB
1 30910U 99025AYY 13290.25583552  .00016135  00000-0  34228-2 0  3506
2 30910 098.6878 305.0790 0157185 316.0111 042.9490 14.51743610346941
0 FENGYUN 1C DEB
1 30910U 99025AYY 13291.28963554  .00016639  00000-0  35047-2 0  3514
2 30910 098.6853 306.1350 0160084 312.6031 046.2643 14.51785949347098
0 FENGYUN 1C DEB
1 30910U 99025AYY 13291.84097400  .00017035  00000-0  36440-2 0  3524
2 30910 098.6923 306.7137 0152134 310.1544 048.7947 14.51812285347171
0 FENGYUN 1C DEB
1 30910U 99025AYY 13294.87326189  .00020668  00000-0  43343-2 0  3536
2 30910 098.6791 309.8301 0159576 301.7078 057.5225 14.51972982347613
0 FENGYUN 1C DEB
1 30910U 99025AYY 13295.28660070  .00019637  00000-0  41299-2 0  3545
2 30910 098.6777 310.2576 0158265 300.4584 058.0034 14.51977948347676
